FENGYUN 1C DEB          
1 37012U 99025ECU 17339.36284003  .00000500  00000-0  38967-3 0  9998
2 37012  98.5823  22.8396 0218704 117.1360 245.2284 13.85656579498172
